NORAD_CAT_ID,OBJECT_NAME,OBJECT_TYPE,EPOCH,MEAN_MOTION,ECCENTRICITY,INCLINATION,RA_OF_ASC_NODE,ARG_OF_PERICENTER,MEAN_ANOMALY,BSTAR,MEAN_MOTION_DOT,MEAN_MOTION_DDOT,TLE_LINE0,TLE_LINE1,TLE_LINE2,SEMIMAJOR_AXIS,PERIOD,APOGEE,PERIGEE,DECAYED
55427.0,STARLINK-5073,PAYLOAD,2023-04-09 13:00:28,15.6991964,0.0003599,69.9967,258.9221,271.5589,88.5194,6.1137e-06,5.22e-06,0.0,0 STARLINK-5073,1 55427U 23014AN  23099.54199123  .00000522  00000-0  61137-5 0  9992,2 55427  69.9967 258.9221 0003599 271.5589  88.5194 15.69919640 10852,6737.264,91.724,361.554,356.704,0.0
55427.0,STARLINK-5073,PAYLOAD,2023-04-09 20:39:12,15.6993191,0.0003373,69.9961,258.0258,274.6334,85.4476,1.5159e-05,1.611e-05,0.0,0 STARLINK-5073,1 55427U 23014AN  23099.86056654  .00001611  00000-0  15159-4 0  9990,2 55427  69.9961 258.0258 0003373 274.6334  85.4476 15.69931910 10908,6737.229,91.724,361.366,356.821,0.0
55427.0,STARLINK-5073,PAYLOAD,2023-04-10 10:24:59,15.69932561,0.000292,69.9973,256.4133,267.5549,92.5313,-4.4592e-06,-7.49e-06,0.0,0 STARLINK-5073,1 55427U 23014AN  23100.43402184 -.00000749  00000-0 -44592-5 0  9996,2 55427  69.9973 256.4133 0002920 267.5549  92.5313 15.69932561 10992,6737.227,91.724,361.059,357.125,0.0
55427.0,STARLINK-5073,PAYLOAD,2023-04-10 16:31:58,15.69948016,0.000388,69.998,255.6985,276.2027,83.8726,1.3259e-05,1.383e-05,0.0,0 STARLINK-5073,1 55427U 23014AN  23100.68887453  .00001383  00000-0  13259-4 0  9997,2 55427  69.9980 255.6985 0003880 276.2027  83.8726 15.69948016 11972,6737.183,91.723,361.662,356.434,0.0
55427.0,STARLINK-5073,PAYLOAD,2023-04-11 09:21:17,15.69916907,0.0004309,69.9969,253.7266,277.6289,82.4417,-1.3865e-06,-3.8e-06,0.0,0 STARLINK-5073,1 55427U 23014AN  23101.38978160 -.00000380  00000-0 -13865-5 0  9993,2 55427  69.9969 253.7266 0004309 277.6289  82.4417 15.69916907 11147,6737.272,91.725,362.04,356.234,0.0
55427.0,STARLINK-5073,PAYLOAD,2023-04-11 12:24:47,15.69917695,0.000354,69.9973,253.3684,277.9135,82.1659,-1.1064e-06,-3.46e-06,0.0,0 STARLINK-5073,1 55427U 23014AN  23101.51721526 -.00000346  00000-0 -11064-5 0  9991,2 55427  69.9973 253.3684 0003540 277.9135  82.1659 15.69917695 12108,6737.269,91.725,361.519,356.749,0.0
55427.0,STARLINK-5073,PAYLOAD,2023-04-11 20:03:32,15.69929596,0.0002943,69.9956,252.4692,260.7518,99.3345,1.0465e-05,1.046e-05,0.0,0 STARLINK-5073,1 55427U 23014AN  23101.83578894  .00001046  00000-0  10465-4 0  9993,2 55427  69.9956 252.4692 0002943 260.7518  99.3345 15.69929596 12159,6737.235,91.724,361.083,357.118,0.0
55427.0,STARLINK-5073,PAYLOAD,2023-04-12 03:42:18,15.69921407,0.0003312,69.9986,251.5788,277.2176,82.8643,1.3851e-05,1.453e-05,0.0,0 STARLINK-5073,1 55427U 23014AN  23102.15437594  .00001453  00000-0  13851-4 0  9994,2 55427  69.9986 251.5788 0003312 277.2176  82.8643 15.69921407 11264,6737.259,91.724,361.355,356.892,0.0
55427.0,STARLINK-5073,PAYLOAD,2023-04-12 11:21:02,15.69938502,0.000339,69.9962,250.6791,266.851,93.2297,3.3475e-06,1.9e-06,0.0,0 STARLINK-5073,1 55427U 23014AN  23102.47294997  .00000190  00000-0  33475-5 0  9999,2 55427  69.9962 250.6791 0003390 266.8510  93.2297 15.69938502 12259,6737.21,91.723,361.359,356.791,0.0
55427.0,STARLINK-5073,PAYLOAD,2023-04-12 15:56:18,15.69938391,0.0003599,69.9968,250.1426,268.5981,91.4803,3.3883e-06,1.95e-06,0.0,0 STARLINK-5073,1 55427U 23014AN  23102.66409856  .00000195  00000-0  33883-5 0  9990,2 55427  69.9968 250.1426 0003599 268.5981  91.4803 15.69938391 11345,6737.21,91.723,361.5,356.651,0.0
55427.0,STARLINK-5073,PAYLOAD,2023-04-13 10:17:21,15.69914299,0.0003363,69.9962,247.9929,272.787,87.2941,1.7804e-05,1.928e-05,0.0,0 STARLINK-5073,1 55427U 23014AN  23103.42871535  .00001928  00000-0  17804-4 0  9991,2 55427  69.9962 247.9929 0003363 272.7870  87.2941 15.69914299 12409,6737.279,91.725,361.41,356.878,0.0
55427.0,STARLINK-5073,PAYLOAD,2023-04-13 16:24:20,15.69928532,0.0003774,69.9992,247.2799,270.9909,89.0855,2.85e-05,3.216e-05,0.0,0 STARLINK-5073,1 55427U 23014AN  23103.68357158  .00003216  00000-0  28500-4 0  9996,2 55427  69.9992 247.2799 0003774 270.9909  89.0855 15.69928532 11508,6737.238,91.724,361.646,356.561,0.0
55427.0,STARLINK-5073,PAYLOAD,2023-04-14 12:17:07,15.69927013,0.0003996,69.9991,244.9509,279.2808,80.7936,3.3023e-05,3.76e-05,0.0,0 STARLINK-5073,1 55427U 23014AN  23104.51189069  .00003760  00000-0  33023-4 0  9993,2 55427  69.9991 244.9509 0003996 279.2808  80.7936 15.69927013 12575,6737.243,91.724,361.8,356.416,0.0
55427.0,STARLINK-5073,PAYLOAD,2023-04-14 19:55:51,15.69945467,0.0003427,69.9991,244.0554,272.1279,87.9524,1.9806e-05,2.171e-05,0.0,0 STARLINK-5073,1 55427U 23014AN  23104.83046201  .00002171  00000-0  19806-4 0  9996,2 55427  69.9991 244.0554 0003427 272.1279  87.9524 15.69945467 11685,6737.19,91.723,361.364,356.746,0.0
55427.0,STARLINK-5073,PAYLOAD,2023-04-15 12:45:10,15.69916241,0.0003497,69.9978,242.0816,270.5875,89.492,1.5569e-06,-2.6e-07,0.0,0 STARLINK-5073,1 55427U 23014AN  23105.53136914 -.00000026  00000-0  15569-5 0  9996,2 55427  69.9978 242.0816 0003497 270.5875  89.4920 15.69916241 12732,6737.274,91.725,361.495,356.783,0.0
55427.0,STARLINK-5073,PAYLOAD,2023-04-15 18:52:10,15.69921628,0.0002985,69.9981,241.367,263.6373,96.4483,2.1402e-05,2.361e-05,0.0,0 STARLINK-5073,1 55427U 23014AN  23105.78623049  .00002361  00000-0  21402-4 0  9998,2 55427  69.9981 241.3670 0002985 263.6373  96.4483 15.69921628 11830,6737.258,91.724,361.134,357.112,0.0
55427.0,STARLINK-5073,PAYLOAD,2023-04-16 11:41:26,15.69929473,0.0002893,69.9985,239.3961,266.5091,93.5773,3.6923e-06,2.32e-06,0.0,0 STARLINK-5073,1 55427U 23014AN  23106.48711285  .00000232  00000-0  36923-5 0  9996,2 55427  69.9985 239.3961 0002893 266.5091  93.5773 15.69929473 12883,6737.236,91.724,361.05,357.152,0.0
55427.0,STARLINK-5073,PAYLOAD,2023-04-16 17:48:28,15.69904862,0.0002965,69.9987,238.6805,277.2782,82.8076,-3.9061e-05,-4.902e-05,0.0,0 STARLINK-5073,1 55427U 23014AN  23106.74199981 -.00004902  00000-0 -39061-4 0  9993,2 55427  69.9987 238.6805 0002965 277.2782  82.8076 15.69904862 11982,6737.306,91.725,361.169,357.174,0.0
55427.0,STARLINK-5073,PAYLOAD,2023-04-17 12:09:28,15.69918274,0.0002659,70.0,236.53,262.1086,97.9808,2.7603e-05,3.107e-05,0.0,0 STARLINK-5073,1 55427U 23014AN  23107.50658262  .00003107  00000-0  27603-4 0  9993,2 55427  70.0000 236.5300 0002659 262.1086  97.9808 15.69918274 12105,6737.268,91.725,360.924,357.341,0.0
55427.0,STARLINK-5073,PAYLOAD,2023-04-17 18:16:31,15.69893863,0.0002884,69.9996,235.8133,275.5575,84.5292,-4.4798e-06,-7.5e-06,0.0,0 STARLINK-5073,1 55427U 23014AN  23107.76147007 -.00000750  00000-0 -44798-5 0  9999,2 55427  69.9996 235.8133 0002884 275.5575  84.5292 15.69893863 12142,6737.338,91.726,361.146,357.26,0.0
55427.0,STARLINK-5073,PAYLOAD,2023-04-18 01:55:14,15.69920968,0.0003171,69.9982,234.9165,273.8253,86.258,7.3382e-06,6.7e-06,0.0,0 STARLINK-5073,1 55427U 23014AN  23108.08003418  .00000670  00000-0  73382-5 0  9992,2 55427  69.9982 234.9165 0003171 273.8253  86.2580 15.69920968 12197,6737.26,91.724,361.261,356.989,0.0
55427.0,STARLINK-5073,PAYLOAD,2023-04-18 09:34:00,15.69918688,0.0003001,69.9992,234.0216,270.3524,89.7327,1.0226e-05,1.017e-05,0.0,0 STARLINK-5073,1 55427U 23014AN  23108.39862001  .00001017  00000-0  10226-4 0  9990,2 55427  69.9992 234.0216 0003001 270.3524  89.7327 15.69918688 13184,6737.267,91.724,361.153,357.11,0.0
55427.0,STARLINK-5073,PAYLOAD,2023-04-18 17:12:45,15.69926875,0.0002921,69.9999,233.1262,262.6054,97.4809,1.4615e-05,1.545e-05,0.0,0 STARLINK-5073,1 55427U 23014AN  23108.71719769  .00001545  00000-0  14615-4 0  9990,2 55427  69.9999 233.1262 0002921 262.6054  97.4809 15.69926875 13238,6737.243,91.724,361.076,357.14,0.0
55427.0,STARLINK-5073,PAYLOAD,2023-04-19 08:30:51,15.69441823,0.0008314,69.9992,231.3348,282.6182,77.4083,-0.00054219,-0.00063753,0.0,0 STARLINK-5073,1 55427U 23014AN  23109.35476205 -.00063753  00000-0 -54219-3 0  9990,2 55427  69.9992 231.3348 0008314 282.6182  77.4083 15.69441823 13330,6738.631,91.752,366.099,354.894,0.0
55427.0,STARLINK-5073,PAYLOAD,2023-04-19 22:00:00,15.6776939,0.0003452,70.0005,229.757,269.6668,23.102,-0.0095825,-0.00957647,0.0,0 STARLINK-5073,1 55427U 23014AN  23109.91667824 -.00957647  00000-0 -95825-2 0  9992,2 55427  70.0005 229.7570 0003452 269.6668  23.1020 15.67769390 12482,6743.423,91.85,367.616,362.96,0.0
55427.0,STARLINK-5073,PAYLOAD,2023-04-20 14:00:01,15.66423528,0.0003375,70.0007,227.8906,271.057,181.6019,-0.0093668,-0.00892198,0.0,0 STARLINK-5073,1 55427U 23014AN  23110.58334491 -.00892198  00000-0 -93668-2 0  9990,2 55427  70.0007 227.8906 0003375 271.0570 181.6019 15.66423528  1305,6747.285,91.929,371.427,366.873,0.0
55427.0,STARLINK-5073,PAYLOAD,2023-04-20 22:00:00,15.65817733,0.0003293,70.0006,226.9587,271.9753,259.4281,-0.0105,-0.00968261,0.0,0 STARLINK-5073,1 55427U 23014AN  23110.91667824 -.00968261  00000-0 -10500-1 0  9994,2 55427  70.0006 226.9587 0003293 271.9753 259.4281 15.65817733  1309,6749.025,91.965,373.112,368.668,0.0
55427.0,STARLINK-5073,PAYLOAD,2023-04-21 14:00:01,15.64469928,0.0003695,70.001,225.098,270.9395,55.6598,-0.010233,-0.00900585,0.0,0 STARLINK-5073,1 55427U 23014AN  23111.58334491 -.00900585  00000-0 -10233-1 0  9997,2 55427  70.0010 225.0980 0003695 270.9395  55.6598 15.64469928  1303,6752.901,92.044,377.261,372.27,0.0
55427.0,STARLINK-5073,PAYLOAD,2023-04-21 22:00:00,15.63854813,0.0003709,70.0005,224.1688,273.6065,129.3905,-0.01118,-0.00954778,0.0,0 STARLINK-5073,1 55427U 23014AN  23111.91667824 -.00954778  00000-0 -11180-1 0  9998,2 55427  70.0005 224.1688 0003709 273.6065 129.3905 15.63854813 12798,6754.671,92.08,379.042,374.031,0.0
55427.0,STARLINK-5073,PAYLOAD,2023-04-22 14:00:01,15.62496477,0.0003541,70.0006,222.3131,271.7335,281.7689,-0.010642,-0.0086921,0.0,0 STARLINK-5073,1 55427U 23014AN  23112.58334491 -.00869210  00000-0 -10642-1 0  9991,2 55427  70.0006 222.3131 0003541 271.7335 281.7689 15.62496477 12895,6758.585,92.16,382.844,378.057,0.0
